[{"COMMENT":"GENERATED VIA SPACETRACK.ORG API","ORIGINATOR":"18 SPCS","NORAD_CAT_ID":"43477","OBJECT_NAME":"GRACE-FO 2","OBJECT_TYPE":"PAYLOAD","CLASSIFICATION_TYPE":"U","INTLDES":"18047B","EPOCH":"2023-09-23 11:36:53","EPOCH_MICROSECONDS":"297280","MEAN_MOTION":"15.26851522","ECCENTRICITY":"0.0014892","INCLINATION":"88.9898","RA_OF_ASC_NODE":"335.8245","ARG_OF_PERICENTER":"30.2808","MEAN_ANOMALY":"329.9299","EPHEMERIS_TYPE":"0","ELEMENT_SET_NO":"999","REV_AT_EPOCH":"29699","BSTAR":"0.00016015","MEAN_MOTION_DOT":"0.00004264","MEAN_MOTION_DDOT":"0","FILE":"4014297","TLE_LINE0":"0 GRACE-FO 2","TLE_LINE1":"1 43477U 18047B   23266.48395020  .00004264  00000-0  16015-3 0  9997","TLE_LINE2":"2 43477  88.9898 335.8245 0014892  30.2808 329.9299 15.26851522296997","OBJECT_ID":"2018-047B","OBJECT_NUMBER":"43477","SEMIMAJOR_AXIS":"6863.368","PERIOD":"94.312","APOGEE":"495.454","PERIGEE":"475.012","DECAYED":"0"},{"COMMENT":"GENERATED VIA SPACETRACK.ORG API","ORIGINATOR":"18 SPCS","NORAD_CAT_ID":"43477","OBJECT_NAME":"GRACE-FO 2","OBJECT_TYPE":"PAYLOAD","CLASSIFICATION_TYPE":"U","INTLDES":"18047B","EPOCH":"2023-09-24 12:46:55","EPOCH_MICROSECONDS":"501248","MEAN_MOTION":"15.26861058","ECCENTRICITY":"0.0014714","INCLINATION":"88.9899","RA_OF_ASC_NODE":"335.6822","ARG_OF_PERICENTER":"26.5539","MEAN_ANOMALY":"333.6461","EPHEMERIS_TYPE":"0","ELEMENT_SET_NO":"999","REV_AT_EPOCH":"29715","BSTAR":"0.00017336","MEAN_MOTION_DOT":"0.00004614","MEAN_MOTION_DDOT":"0","FILE":"4015358","TLE_LINE0":"0 GRACE-FO 2","TLE_LINE1":"1 43477U 18047B   23267.53258682  .00004614  00000-0  17336-3 0  9992","TLE_LINE2":"2 43477  88.9899 335.6822 0014714  26.5539 333.6461 15.26861058297156","OBJECT_ID":"2018-047B","OBJECT_NUMBER":"43477","SEMIMAJOR_AXIS":"6863.340","PERIOD":"94.311","APOGEE":"495.303","PERIGEE":"475.106","DECAYED":"0"},{"COMMENT":"GENERATED VIA SPACETRACK.ORG API","ORIGINATOR":"18 SPCS","NORAD_CAT_ID":"43477","OBJECT_NAME":"GRACE-FO 2","OBJECT_TYPE":"PAYLOAD","CLASSIFICATION_TYPE":"U","INTLDES":"18047B","EPOCH":"2023-09-24 17:30:03","EPOCH_MICROSECONDS":"357792","MEAN_MOTION":"15.26862567","ECCENTRICITY":"0.0014681","INCLINATION":"88.9899","RA_OF_ASC_NODE":"335.6555","ARG_OF_PERICENTER":"25.8499","MEAN_ANOMALY":"334.3481","EPHEMERIS_TYPE":"0","ELEMENT_SET_NO":"999","REV_AT_EPOCH":"29718","BSTAR":"0.00016898","MEAN_MOTION_DOT":"0.00004498","MEAN_MOTION_DDOT":"0","FILE":"4015379","TLE_LINE0":"0 GRACE-FO 2","TLE_LINE1":"1 43477U 18047B   23267.72920553  .00004498  00000-0  16898-3 0  9998","TLE_LINE2":"2 43477  88.9899 335.6555 0014681  25.8499 334.3481 15.26862567297188","OBJECT_ID":"2018-047B","OBJECT_NUMBER":"43477","SEMIMAJOR_AXIS":"6863.335","PERIOD":"94.311","APOGEE":"495.276","PERIGEE":"475.124","DECAYED":"0"},{"COMMENT":"GENERATED VIA SPACETRACK.ORG API","ORIGINATOR":"18 SPCS","NORAD_CAT_ID":"43477","OBJECT_NAME":"GRACE-FO 2","OBJECT_TYPE":"PAYLOAD","CLASSIFICATION_TYPE":"U","INTLDES":"18047B","EPOCH":"2023-09-24 22:13:11","EPOCH_MICROSECONDS":"181504","MEAN_MOTION":"15.26864444","ECCENTRICITY":"0.0014643","INCLINATION":"88.9899","RA_OF_ASC_NODE":"335.6288","ARG_OF_PERICENTER":"25.1646","MEAN_ANOMALY":"335.0313","EPHEMERIS_TYPE":"0","ELEMENT_SET_NO":"999","REV_AT_EPOCH":"29721","BSTAR":"0.00017175","MEAN_MOTION_DOT":"0.00004572","MEAN_MOTION_DDOT":"0","FILE":"4015673","TLE_LINE0":"0 GRACE-FO 2","TLE_LINE1":"1 43477U 18047B   23267.92582386  .00004572  00000-0  17175-3 0  9990","TLE_LINE2":"2 43477  88.9899 335.6288 0014643  25.1646 335.0313 15.26864444297218","OBJECT_ID":"2018-047B","OBJECT_NUMBER":"43477","SEMIMAJOR_AXIS":"6863.330","PERIOD":"94.311","APOGEE":"495.245","PERIGEE":"475.145","DECAYED":"0"},{"COMMENT":"GENERATED VIA SPACETRACK.ORG API","ORIGINATOR":"18 SPCS","NORAD_CAT_ID":"43477","OBJECT_NAME":"GRACE-FO 2","OBJECT_TYPE":"PAYLOAD","CLASSIFICATION_TYPE":"U","INTLDES":"18047B","EPOCH":"2023-09-25 12:22:34","EPOCH_MICROSECONDS":"483296","MEAN_MOTION":"15.26871723","ECCENTRICITY":"0.0014512","INCLINATION":"88.99","RA_OF_ASC_NODE":"335.5487","ARG_OF_PERICENTER":"23.1511","MEAN_ANOMALY":"337.0389","EPHEMERIS_TYPE":"0","ELEMENT_SET_NO":"999","REV_AT_EPOCH":"29730","BSTAR":"0.00019237","MEAN_MOTION_DOT":"0.00005118","MEAN_MOTION_DDOT":"0","FILE":"4016340","TLE_LINE0":"0 GRACE-FO 2","TLE_LINE1":"1 43477U 18047B   23268.51567689  .00005118  00000-0  19237-3 0  9993","TLE_LINE2":"2 43477  88.9900 335.5487 0014512  23.1511 337.0389 15.26871723297308","OBJECT_ID":"2018-047B","OBJECT_NUMBER":"43477","SEMIMAJOR_AXIS":"6863.308","PERIOD":"94.310","APOGEE":"495.133","PERIGEE":"475.213","DECAYED":"0"},{"COMMENT":"GENERATED VIA SPACETRACK.ORG API","ORIGINATOR":"18 SPCS","NORAD_CAT_ID":"43477","OBJECT_NAME":"GRACE-FO 2","OBJECT_TYPE":"PAYLOAD","CLASSIFICATION_TYPE":"U","INTLDES":"18047B","EPOCH":"2023-09-25 18:40:04","EPOCH_MICROSECONDS":"772064","MEAN_MOTION":"15.26874663","ECCENTRICITY":"0.0014458","INCLINATION":"88.99","RA_OF_ASC_NODE":"335.5131","ARG_OF_PERICENTER":"22.2132","MEAN_ANOMALY":"337.974","EPHEMERIS_TYPE":"0","ELEMENT_SET_NO":"999","REV_AT_EPOCH":"29734","BSTAR":"0.00019571","MEAN_MOTION_DOT":"0.00005206","MEAN_MOTION_DDOT":"0","FILE":"4016401","TLE_LINE0":"0 GRACE-FO 2","TLE_LINE1":"1 43477U 18047B   23268.77783301  .00005206  00000-0  19571-3 0  9991","TLE_LINE2":"2 43477  88.9900 335.5131 0014458  22.2132 337.9740 15.26874663297342","OBJECT_ID":"2018-047B","OBJECT_NUMBER":"43477","SEMIMAJOR_AXIS":"6863.299","PERIOD":"94.310","APOGEE":"495.087","PERIGEE":"475.241","DECAYED":"0"},{"COMMENT":"GENERATED VIA SPACETRACK.ORG API","ORIGINATOR":"18 SPCS","NORAD_CAT_ID":"43477","OBJECT_NAME":"GRACE-FO 2","OBJECT_TYPE":"PAYLOAD","CLASSIFICATION_TYPE":"U","INTLDES":"18047B","EPOCH":"2023-09-25 21:48:49","EPOCH_MICROSECONDS":"903488","MEAN_MOTION":"15.2687568","ECCENTRICITY":"0.0014432","INCLINATION":"88.99","RA_OF_ASC_NODE":"335.4953","ARG_OF_PERICENTER":"21.7624","MEAN_ANOMALY":"338.4235","EPHEMERIS_TYPE":"0","ELEMENT_SET_NO":"999","REV_AT_EPOCH":"29736","BSTAR":"0.00018796","MEAN_MOTION_DOT":"0.00005001","MEAN_MOTION_DDOT":"0","FILE":"4016730","TLE_LINE0":"0 GRACE-FO 2","TLE_LINE1":"1 43477U 18047B   23268.90891092  .00005001  00000-0  18796-3 0  9994","TLE_LINE2":"2 43477  88.9900 335.4953 0014432  21.7624 338.4235 15.26875680297362","OBJECT_ID":"2018-047B","OBJECT_NUMBER":"43477","SEMIMAJOR_AXIS":"6863.296","PERIOD":"94.310","APOGEE":"495.066","PERIGEE":"475.256","DECAYED":"0"},{"COMMENT":"GENERATED VIA SPACETRACK.ORG API","ORIGINATOR":"18 SPCS","NORAD_CAT_ID":"43477","OBJECT_NAME":"GRACE-FO 2","OBJECT_TYPE":"PAYLOAD","CLASSIFICATION_TYPE":"U","INTLDES":"18047B","EPOCH":"2023-09-26 11:58:12","EPOCH_MICROSECONDS":"865728","MEAN_MOTION":"15.26882157","ECCENTRICITY":"0.0014329","INCLINATION":"88.99","RA_OF_ASC_NODE":"335.4152","ARG_OF_PERICENTER":"19.6434","MEAN_ANOMALY":"340.5364","EPHEMERIS_TYPE":"0","ELEMENT_SET_NO":"999","REV_AT_EPOCH":"29745","BSTAR":"0.00019149","MEAN_MOTION_DOT":"0.00005096","MEAN_MOTION_DDOT":"0","FILE":"4017272","TLE_LINE0":"0 GRACE-FO 2","TLE_LINE1":"1 43477U 18047B   23269.49876002  .00005096  00000-0  19149-3 0  9990","TLE_LINE2":"2 43477  88.9900 335.4152 0014329  19.6434 340.5364 15.26882157297457","OBJECT_ID":"2018-047B","OBJECT_NUMBER":"43477","SEMIMAJOR_AXIS":"6863.276","PERIOD":"94.310","APOGEE":"494.976","PERIGEE":"475.307","DECAYED":"0"},{"COMMENT":"GENERATED VIA SPACETRACK.ORG API","ORIGINATOR":"18 SPCS","NORAD_CAT_ID":"43477","OBJECT_NAME":"GRACE-FO 2","OBJECT_TYPE":"PAYLOAD","CLASSIFICATION_TYPE":"U","INTLDES":"18047B","EPOCH":"2023-09-26 21:24:28","EPOCH_MICROSECONDS":"50912","MEAN_MOTION":"15.26886314","ECCENTRICITY":"0.0014251","INCLINATION":"88.9901","RA_OF_ASC_NODE":"335.3619","ARG_OF_PERICENTER":"18.2259","MEAN_ANOMALY":"341.9498","EPHEMERIS_TYPE":"0","ELEMENT_SET_NO":"999","REV_AT_EPOCH":"29751","BSTAR":"0.00018898","MEAN_MOTION_DOT":"0.0000503","MEAN_MOTION_DDOT":"0","FILE":"4017567","TLE_LINE0":"0 GRACE-FO 2","TLE_LINE1":"1 43477U 18047B   23269.89199133  .00005030  00000-0  18898-3 0  9995","TLE_LINE2":"2 43477  88.9901 335.3619 0014251  18.2259 341.9498 15.26886314297518","OBJECT_ID":"2018-047B","OBJECT_NUMBER":"43477","SEMIMAJOR_AXIS":"6863.264","PERIOD":"94.310","APOGEE":"494.910","PERIGEE":"475.348","DECAYED":"0"},{"COMMENT":"GENERATED VIA SPACETRACK.ORG API","ORIGINATOR":"18 SPCS","NORAD_CAT_ID":"43477","OBJECT_NAME":"GRACE-FO 2","OBJECT_TYPE":"PAYLOAD","CLASSIFICATION_TYPE":"U","INTLDES":"18047B","EPOCH":"2023-09-27 00:33:13","EPOCH_MICROSECONDS":"99392","MEAN_MOTION":"15.26887613","ECCENTRICITY":"0.0014233","INCLINATION":"88.9901","RA_OF_ASC_NODE":"335.3441","ARG_OF_PERICENTER":"17.7433","MEAN_ANOMALY":"342.431","EPHEMERIS_TYPE":"0","ELEMENT_SET_NO":"999","REV_AT_EPOCH":"29753","BSTAR":"0.00018984","MEAN_MOTION_DOT":"0.00005052","MEAN_MOTION_DDOT":"0","FILE":"4017611","TLE_LINE0":"0 GRACE-FO 2","TLE_LINE1":"1 43477U 18047B   23270.02306828  .00005052  00000-0  18984-3 0  9993","TLE_LINE2":"2 43477  88.9901 335.3441 0014233  17.7433 342.4310 15.26887613297533","OBJECT_ID":"2018-047B","OBJECT_NUMBER":"43477","SEMIMAJOR_AXIS":"6863.260","PERIOD":"94.309","APOGEE":"494.894","PERIGEE":"475.357","DECAYED":"0"}]